[{"OBJECT_NAME":"STARLINK-6186","OBJECT_ID":"2023-083AJ","EPOCH":"2026-03-09T22:00:01.999584","MEAN_MOTION":15.0835736,"ECCENTRICITY":0.00020034,"INCLINATION":43.001,"RA_OF_ASC_NODE":67.6829,"ARG_OF_PERICENTER":267.1506,"MEAN_ANOMALY":66.6088,"EPHEMERIS_TYPE":0,"CLASSIFICATION_TYPE":"U","NORAD_CAT_ID":56908,"ELEMENT_SET_NO":999,"REV_AT_EPOCH":577,"BSTAR":0.0045731137,"MEAN_MOTION_DOT":0.00072792,"MEAN_MOTION_DDOT":0},{"OBJECT_NAME":"LEMUR-2-KREMPEL-BRO2","OBJECT_ID":"2025-061C","EPOCH":"2026-03-09T20:43:52.091904","MEAN_MOTION":15.13192951,"ECCENTRICITY":0.00179248,"INCLINATION":97.5616,"RA_OF_ASC_NODE":45.5365,"ARG_OF_PERICENTER":236.8576,"MEAN_ANOMALY":123.0936,"EPHEMERIS_TYPE":0,"CLASSIFICATION_TYPE":"U","NORAD_CAT_ID":63353,"ELEMENT_SET_NO":999,"REV_AT_EPOCH":5258,"BSTAR":0.00044346981,"MEAN_MOTION_DOT":7.837e-5,"MEAN_MOTION_DDOT":0}]
